[{"OBJECT_NAME":"ORBCOMM FM105","OBJECT_ID":"2015-081C","EPOCH":"2026-03-04T00:06:44.960256","MEAN_MOTION":14.45488333,"ECCENTRICITY":0.0001275,"INCLINATION":47.0008,"RA_OF_ASC_NODE":79.0219,"ARG_OF_PERICENTER":11.1161,"MEAN_ANOMALY":348.9748,"EPHEMERIS_TYPE":0,"CLASSIFICATION_TYPE":"U","NORAD_CAT_ID":41181,"ELEMENT_SET_NO":999,"REV_AT_EPOCH":53833,"BSTAR":0.00015503,"MEAN_MOTION_DOT":3.94e-6,"MEAN_MOTION_DDOT":0},{"OBJECT_NAME":"ORBCOMM FM110","OBJECT_ID":"2015-081D","EPOCH":"2026-03-03T13:28:58.114272","MEAN_MOTION":14.58720495,"ECCENTRICITY":0.0003548,"INCLINATION":47.0014,"RA_OF_ASC_NODE":140.8129,"ARG_OF_PERICENTER":295.0481,"MEAN_ANOMALY":65.0036,"EPHEMERIS_TYPE":0,"CLASSIFICATION_TYPE":"U","NORAD_CAT_ID":41182,"ELEMENT_SET_NO":999,"REV_AT_EPOCH":54220,"BSTAR":0.00030825,"MEAN_MOTION_DOT":1.282e-5,"MEAN_MOTION_DDOT":0},{"OBJECT_NAME":"ORBCOMM FM118","OBJECT_ID":"2015-081E","EPOCH":"2026-03-03T14:18:45.567936","MEAN_MOTION":14.58716363,"ECCENTRICITY":0.0003884,"INCLINATION":47.0033,"RA_OF_ASC_NODE":140.9629,"ARG_OF_PERICENTER":264.109,"MEAN_ANOMALY":95.9353,"EPHEMERIS_TYPE":0,"CLASSIFICATION_TYPE":"U","NORAD_CAT_ID":41183,"ELEMENT_SET_NO":999,"REV_AT_EPOCH":54231,"BSTAR":0.00029689,"MEAN_MOTION_DOT":1.228e-5,"MEAN_MOTION_DDOT":0},{"OBJECT_NAME":"ORBCOMM FM112","OBJECT_ID":"2015-081F","EPOCH":"2026-03-04T00:14:48.712128","MEAN_MOTION":14.58718421,"ECCENTRICITY":9.94e-5,"INCLINATION":46.9996,"RA_OF_ASC_NODE":47.508,"ARG_OF_PERICENTER":53.6338,"MEAN_ANOMALY":306.4639,"EPHEMERIS_TYPE":0,"CLASSIFICATION_TYPE":"U","NORAD_CAT_ID":41184,"ELEMENT_SET_NO":999,"REV_AT_EPOCH":54359,"BSTAR":0.00025689,"MEAN_MOTION_DOT":1.04e-5,"MEAN_MOTION_DDOT":0},{"OBJECT_NAME":"ORBCOMM FM113","OBJECT_ID":"2015-081G","EPOCH":"2026-03-04T01:20:37.865184","MEAN_MOTION":14.58719604,"ECCENTRICITY":5.77e-5,"INCLINATION":47.0013,"RA_OF_ASC_NODE":47.6591,"ARG_OF_PERICENTER":63.2334,"MEAN_ANOMALY":296.8611,"EPHEMERIS_TYPE":0,"CLASSIFICATION_TYPE":"U","NORAD_CAT_ID":41185,"ELEMENT_SET_NO":999,"REV_AT_EPOCH":54358,"BSTAR":0.00024842,"MEAN_MOTION_DOT":1.0e-5,"MEAN_MOTION_DDOT":0},{"OBJECT_NAME":"ORBCOMM FM115","OBJECT_ID":"2015-081H","EPOCH":"2026-03-03T16:04:37.524000","MEAN_MOTION":14.63105979,"ECCENTRICITY":0.00011602,"INCLINATION":46.9973,"RA_OF_ASC_NODE":244.9013,"ARG_OF_PERICENTER":205.8214,"MEAN_ANOMALY":154.2615,"EPHEMERIS_TYPE":0,"CLASSIFICATION_TYPE":"U","NORAD_CAT_ID":41186,"ELEMENT_SET_NO":999,"REV_AT_EPOCH":54576,"BSTAR":0.00024000244,"MEAN_MOTION_DOT":1.069e-5,"MEAN_MOTION_DDOT":0},{"OBJECT_NAME":"ORBCOMM FM108","OBJECT_ID":"2015-081J","EPOCH":"2026-03-03T16:13:42.044448","MEAN_MOTION":14.58730739,"ECCENTRICITY":0.00022009,"INCLINATION":47.0059,"RA_OF_ASC_NODE":320.9947,"ARG_OF_PERICENTER":59.3085,"MEAN_ANOMALY":300.8017,"EPHEMERIS_TYPE":0,"CLASSIFICATION_TYPE":"U","NORAD_CAT_ID":41187,"ELEMENT_SET_NO":999,"REV_AT_EPOCH":54467,"BSTAR":0.00031189535,"MEAN_MOTION_DOT":1.299e-5,"MEAN_MOTION_DDOT":0},{"OBJECT_NAME":"ORBCOMM FM117","OBJECT_ID":"2015-081K","EPOCH":"2026-03-04T01:15:49.996800","MEAN_MOTION":14.58723735,"ECCENTRICITY":0.0002525,"INCLINATION":47.0022,"RA_OF_ASC_NODE":317.8837,"ARG_OF_PERICENTER":72.5276,"MEAN_ANOMALY":287.5886,"EPHEMERIS_TYPE":0,"CLASSIFICATION_TYPE":"U","NORAD_CAT_ID":41188,"ELEMENT_SET_NO":999,"REV_AT_EPOCH":54477,"BSTAR":0.00030902,"MEAN_MOTION_DOT":1.285e-5,"MEAN_MOTION_DDOT":0},{"OBJECT_NAME":"ORBCOMM FM116","OBJECT_ID":"2015-081L","EPOCH":"2026-03-04T00:48:09.304992","MEAN_MOTION":14.58713856,"ECCENTRICITY":0.000267,"INCLINATION":47.0029,"RA_OF_ASC_NODE":47.7556,"ARG_OF_PERICENTER":292.9065,"MEAN_ANOMALY":67.1539,"EPHEMERIS_TYPE":0,"CLASSIFICATION_TYPE":"U","NORAD_CAT_ID":41189,"ELEMENT_SET_NO":999,"REV_AT_EPOCH":54358,"BSTAR":0.00028805,"MEAN_MOTION_DOT":1.186e-5,"MEAN_MOTION_DDOT":0}]
